start=new Date('2022-06-19T00:00:00.000Z').valueOf();
sats=[{"MEAN_MOTION":"15.06404149","BSTAR":"-0.00002279500000","CLASSIFICATION_TYPE":"U","TIME_SYSTEM":"UTC","PERIOD":"95.592","LAUNCH_DATE":"2021-04-29","OBJECT_ID":"2021-036E","ECCENTRICITY":"0.00014210","GP_ID":"206288725","MEAN_MOTION_DDOT":"0.0000000000000","RCS_SIZE":"LARGE","PERIAPSIS":"546.217","SEMIMAJOR_AXIS":"6925.336","MEAN_MOTION_DOT":"-0.00000621","RA_OF_ASC_NODE":"93.6719","SITE":"AFETR","NORAD_CAT_ID":"48280","TLE_LINE2":"2 48280  53.0558  93.6719 0001421  59.6559 300.4570 15.06404149 62722","MEAN_ELEMENT_THEORY":"SGP4","CENTER_NAME":"EARTH","APOAPSIS":"548.185","ARG_OF_PERICENTER":"59.6559","MEAN_ANOMALY":"300.4570","ELEMENT_SET_NO":"999","EPOCH":"2022-06-16T01:34:36.773760","OBJECT_NAME":"STARLINK-2565","COUNTRY_CODE":"US","INCLINATION":"53.0558","TLE_LINE1":"1 48280U 21036E   22167.06570340 -.00000621  00000-0 -22795-4 0  9997","REF_FRAME":"TEME","REV_AT_EPOCH":"6272","FILE":"3497002","EPHEMERIS_TYPE":"0","DECAY_DATE":null,"OBJECT_TYPE":"PAYLOAD"},{"OBJECT_ID":"2021-036F","RCS_SIZE":"LARGE","GP_ID":"206288472","MEAN_MOTION_DDOT":"0.0000000000000","ECCENTRICITY":"0.00015960","CLASSIFICATION_TYPE":"U","BSTAR":"0.00022089000000","MEAN_MOTION":"15.06400136","LAUNCH_DATE":"2021-04-29","PERIOD":"95.592","TIME_SYSTEM":"UTC","SITE":"AFETR","NORAD_CAT_ID":"48281","APOAPSIS":"548.318","MEAN_ELEMENT_THEORY":"SGP4","CENTER_NAME":"EARTH","TLE_LINE2":"2 48281  53.0537  73.9173 0001596  70.5755 289.5406 15.06400136 62994","SEMIMAJOR_AXIS":"6925.348","PERIAPSIS":"546.108","RA_OF_ASC_NODE":"73.9173","MEAN_MOTION_DOT":"0.00003010","OBJECT_NAME":"STARLINK-2520","EPOCH":"2022-06-16T00:17:38.838048","INCLINATION":"53.0537","COUNTRY_CODE":"US","ARG_OF_PERICENTER":"70.5755","ELEMENT_SET_NO":"999","MEAN_ANOMALY":"289.5406","REV_AT_EPOCH":"6299","OBJECT_TYPE":"PAYLOAD","DECAY_DATE":null,"EPHEMERIS_TYPE":"0","FILE":"3497002","TLE_LINE1":"1 48281U 21036F   22167.01225507  .00003010  00000-0  22089-3 0  9993","REF_FRAME":"TEME"},{"TIME_SYSTEM":"UTC","LAUNCH_DATE":"2021-04-29","PERIOD":"95.593","MEAN_MOTION":"15.06387296","CLASSIFICATION_TYPE":"U","BSTAR":"0.00001708500000","ECCENTRICITY":"0.00014840","GP_ID":"206287228","RCS_SIZE":"LARGE","MEAN_MOTION_DDOT":"0.0000000000000","OBJECT_ID":"2021-036G","MEAN_MOTION_DOT":"-0.00000027","RA_OF_ASC_NODE":"79.1148","PERIAPSIS":"546.225","SEMIMAJOR_AXIS":"6925.387","TLE_LINE2":"2 48282  53.0557  79.1148 0001484  66.0856 294.0288 15.06387296 62928","CENTER_NAME":"EARTH","MEAN_ELEMENT_THEORY":"SGP4","APOAPSIS":"548.280","NORAD_CAT_ID":"48282","SITE":"AFETR","MEAN_ANOMALY":"294.0288","ELEMENT_SET_NO":"999","ARG_OF_PERICENTER":"66.0856","COUNTRY_CODE":"US","INCLINATION":"53.0557","EPOCH":"2022-06-15T23:15:57.792096","OBJECT_NAME":"STARLINK-2558","REF_FRAME":"TEME","TLE_LINE1":"1 48282U 21036G   22166.96941889 -.00000027  00000-0  17085-4 0  9992","FILE":"3497002","EPHEMERIS_TYPE":"0","DECAY_DATE":null,"OBJECT_TYPE":"PAYLOAD","REV_AT_EPOCH":"6292"},{"NORAD_CAT_ID":"48283","SITE":"AFETR","APOAPSIS":"548.408","MEAN_ELEMENT_THEORY":"SGP4","CENTER_NAME":"EARTH","TLE_LINE2":"2 48283  53.0560  78.8367 0001752  72.3836 287.7344 15.06406020 62938","SEMIMAJOR_AXIS":"6925.330","PERIAPSIS":"545.982","RA_OF_ASC_NODE":"78.8367","MEAN_MOTION_DOT":"0.00000369","OBJECT_ID":"2021-036H","RCS_SIZE":"MEDIUM","GP_ID":"206287977","MEAN_MOTION_DDOT":"0.0000000000000","ECCENTRICITY":"0.00017520","CLASSIFICATION_TYPE":"U","BSTAR":"0.00004369500000","MEAN_MOTION":"15.06406020","LAUNCH_DATE":"2021-04-29","PERIOD":"95.592","TIME_SYSTEM":"UTC","REV_AT_EPOCH":"6293","OBJECT_TYPE":"PAYLOAD","DECAY_DATE":null,"FILE":"3497002","EPHEMERIS_TYPE":"0","TLE_LINE1":"1 48283U 21036H   22167.03206652  .00000369  00000-0  43695-4 0  9998","REF_FRAME":"TEME","EPOCH":"2022-06-16T00:46:10.547328","OBJECT_NAME":"STARLINK-2516","INCLINATION":"53.0560","COUNTRY_CODE":"US","ARG_OF_PERICENTER":"72.3836","ELEMENT_SET_NO":"999","MEAN_ANOMALY":"287.7344"},{"LAUNCH_DATE":"2021-04-29","PERIOD":"95.593","TIME_SYSTEM":"UTC","CLASSIFICATION_TYPE":"U","BSTAR":"-0.00004031300000","MEAN_MOTION":"15.06392050","GP_ID":"206288225","RCS_SIZE":"LARGE","MEAN_MOTION_DDOT":"0.0000000000000","ECCENTRICITY":"0.00016440","OBJECT_ID":"2021-036J","RA_OF_ASC_NODE":"78.8354","MEAN_MOTION_DOT":"-0.00000882","SEMIMAJOR_AXIS":"6925.373","PERIAPSIS":"546.099","APOAPSIS":"548.376","CENTER_NAME":"EARTH","MEAN_ELEMENT_THEORY":"SGP4","TLE_LINE2":"2 48284  53.0562  78.8354 0001644  67.4554 292.6609 15.06392050 62924","NORAD_CAT_ID":"48284","SITE":"AFETR","ELEMENT_SET_NO":"999","MEAN_ANOMALY":"292.6609","ARG_OF_PERICENTER":"67.4554","INCLINATION":"53.0562","COUNTRY_CODE":"US","OBJECT_NAME":"STARLINK-2564","EPOCH":"2022-06-16T00:40:53.220864","REF_FRAME":"TEME","TLE_LINE1":"1 48284U 21036J   22167.02839376 -.00000882  00000-0 -40313-4 0  9999","OBJECT_TYPE":"PAYLOAD","DECAY_DATE":null,"FILE":"3497002","EPHEMERIS_TYPE":"0","REV_AT_EPOCH":"6292"},{"NORAD_CAT_ID":"48285","SITE":"AFETR","MEAN_ELEMENT_THEORY":"SGP4","CENTER_NAME":"EARTH","APOAPSIS":"548.341","TLE_LINE2":"2 48285  53.0567  78.8570 0001697  64.9556 295.1610 15.06415594 62921","SEMIMAJOR_AXIS":"6925.301","PERIAPSIS":"545.991","RA_OF_ASC_NODE":"78.8570","MEAN_MOTION_DOT":"-0.00000884","OBJECT_ID":"2021-036K","GP_ID":"206288973","RCS_SIZE":"LARGE","MEAN_MOTION_DDOT":"0.0000000000000","ECCENTRICITY":"0.00016970","BSTAR":"-0.00004045900000","CLASSIFICATION_TYPE":"U","MEAN_MOTION":"15.06415594","LAUNCH_DATE":"2021-04-29","PERIOD":"95.591","TIME_SYSTEM":"UTC","REV_AT_EPOCH":"6292","OBJECT_TYPE":"PAYLOAD","FILE":"3497002","EPHEMERIS_TYPE":"0","DECAY_DATE":null,"TLE_LINE1":"1 48285U 21036K   22167.02375656 -.00000884  00000-0 -40459-4 0  9999","REF_FRAME":"TEME","EPOCH":"2022-06-16T00:34:12.566784","OBJECT_NAME":"STARLINK-2548","INCLINATION":"53.0567","COUNTRY_CODE":"US","ARG_OF_PERICENTER":"64.9556","ELEMENT_SET_NO":"999","MEAN_ANOMALY":"295.1610"},{"TIME_SYSTEM":"UTC","PERIOD":"95.592","LAUNCH_DATE":"2021-04-29","MEAN_MOTION":"15.06395914","CLASSIFICATION_TYPE":"U","BSTAR":"0.00000413330000","ECCENTRICITY":"0.00017430","GP_ID":"206287729","RCS_SIZE":"LARGE","MEAN_MOTION_DDOT":"0.0000000000000","OBJECT_ID":"2021-036L","MEAN_MOTION_DOT":"-0.00000220","RA_OF_ASC_NODE":"78.8892","PERIAPSIS":"546.019","SEMIMAJOR_AXIS":"6925.361","TLE_LINE2":"2 48286  53.0551  78.8892 0001743  63.5055 296.6112 15.06395914 62929","MEAN_ELEMENT_THEORY":"SGP4","CENTER_NAME":"EARTH","APOAPSIS":"548.433","SITE":"AFETR","NORAD_CAT_ID":"48286","MEAN_ANOMALY":"296.6112","ELEMENT_SET_NO":"999","ARG_OF_PERICENTER":"63.5055","COUNTRY_CODE":"US","INCLINATION":"53.0551","EPOCH":"2022-06-16T00:30:15.949152","OBJECT_NAME":"STARLINK-2547","REF_FRAME":"TEME","TLE_LINE1":"1 48286U 21036L   22167.02101793 -.00000220  00000-0  41333-5 0  9995","EPHEMERIS_TYPE":"0","FILE":"3497002","DECAY_DATE":null,"OBJECT_TYPE":"PAYLOAD","REV_AT_EPOCH":"6292"},{"RA_OF_ASC_NODE":"78.8940","MEAN_MOTION_DOT":"-0.00001141","SEMIMAJOR_AXIS":"6925.361","PERIAPSIS":"545.982","CENTER_NAME":"EARTH","MEAN_ELEMENT_THEORY":"SGP4","APOAPSIS":"548.471","TLE_LINE2":"2 48287  53.0564  78.8940 0001797  58.9723 301.1442 15.06395936 62929","NORAD_CAT_ID":"48287","SITE":"AFETR","PERIOD":"95.592","LAUNCH_DATE":"2021-04-29","TIME_SYSTEM":"UTC","BSTAR":"-0.00005770600000","CLASSIFICATION_TYPE":"U","MEAN_MOTION":"15.06395936","GP_ID":"206287478","RCS_SIZE":"LARGE","MEAN_MOTION_DDOT":"0.0000000000000","ECCENTRICITY":"0.00017970","OBJECT_ID":"2021-036M","REF_FRAME":"TEME","TLE_LINE1":"1 48287U 21036M   22167.01733282 -.00001141  00000-0 -57706-4 0  9993","OBJECT_TYPE":"PAYLOAD","FILE":"3497002","EPHEMERIS_TYPE":"0","DECAY_DATE":null,"REV_AT_EPOCH":"6292","ELEMENT_SET_NO":"999","MEAN_ANOMALY":"301.1442","ARG_OF_PERICENTER":"58.9723","INCLINATION":"53.0564","COUNTRY_CODE":"US","EPOCH":"2022-06-16T00:24:57.555648","OBJECT_NAME":"STARLINK-2566"},{"REV_AT_EPOCH":"6292","OBJECT_TYPE":"PAYLOAD","EPHEMERIS_TYPE":"0","FILE":"3497002","DECAY_DATE":null,"TLE_LINE1":"1 48288U 21036N   22167.01270082  .00002152  00000-0  16338-3 0  9994","REF_FRAME":"TEME","OBJECT_NAME":"STARLINK-2562","EPOCH":"2022-06-16T00:18:17.350848","INCLINATION":"53.0553","COUNTRY_CODE":"US","ARG_OF_PERICENTER":"49.8607","ELEMENT_SET_NO":"999","MEAN_ANOMALY":"310.2540","SITE":"AFETR","NORAD_CAT_ID":"48288","CENTER_NAME":"EARTH","MEAN_ELEMENT_THEORY":"SGP4","APOAPSIS":"548.483","TLE_LINE2":"2 48288  53.0553  78.9061 0001805  49.8607 310.2540 15.06393710 62921","SEMIMAJOR_AXIS":"6925.368","PERIAPSIS":"545.983","RA_OF_ASC_NODE":"78.9061","MEAN_MOTION_DOT":"0.00002152","OBJECT_ID":"2021-036N","GP_ID":"206288726","MEAN_MOTION_DDOT":"0.0000000000000","RCS_SIZE":"LARGE","ECCENTRICITY":"0.00018050","CLASSIFICATION_TYPE":"U","BSTAR":"0.00016338000000","MEAN_MOTION":"15.06393710","PERIOD":"95.593","LAUNCH_DATE":"2021-04-29","TIME_SYSTEM":"UTC"},{"TLE_LINE2":"2 48289  53.0557  78.9203 0001779  63.7020 296.4152 15.06409369 62920","CENTER_NAME":"EARTH","MEAN_ELEMENT_THEORY":"SGP4","APOAPSIS":"548.417","NORAD_CAT_ID":"48289","SITE":"AFETR","MEAN_MOTION_DOT":"-0.00000502","RA_OF_ASC_NODE":"78.9203","PERIAPSIS":"545.953","SEMIMAJOR_AXIS":"6925.320","ECCENTRICITY":"0.00017790","GP_ID":"206288473","RCS_SIZE":"LARGE","MEAN_MOTION_DDOT":"0.0000000000000","OBJECT_ID":"2021-036P","TIME_SYSTEM":"UTC","LAUNCH_DATE":"2021-04-29","PERIOD":"95.592","MEAN_MOTION":"15.06409369","CLASSIFICATION_TYPE":"U","BSTAR":"-0.00001476000000","FILE":"3497002","EPHEMERIS_TYPE":"0","DECAY_DATE":null,"OBJECT_TYPE":"PAYLOAD","REV_AT_EPOCH":"6292","REF_FRAME":"TEME","TLE_LINE1":"1 48289U 21036P   22167.00995553 -.00000502  00000-0 -14760-4 0  9998","COUNTRY_CODE":"US","INCLINATION":"53.0557","EPOCH":"2022-06-16T00:14:20.157792","OBJECT_NAME":"STARLINK-2545","MEAN_ANOMALY":"296.4152","ELEMENT_SET_NO":"999","ARG_OF_PERICENTER":"63.7020"}];
